{
    "links": {
        "self": "http://www.neowsapp.com/rest/v1/neo/3584581?api_key=iIulBulltgU6a56xZRHN4H3l9WmuAYTsLGpBGhQ2"
    },
    "id": "3584581",
    "neo_reference_id": "3584581",
    "name": "(2011 UF256)",
    "designation": "2011 UF256",
    "nasa_jpl_url": "http://ssd.jpl.nasa.gov/sbdb.cgi?sstr=3584581",
    "absolute_magnitude_h": 22.1,
    "estimated_diameter": {
        "kilometers": {
            "estimated_diameter_min": 0.1010543415,
            "estimated_diameter_max": 0.2259643771
        },
        "meters": {
            "estimated_diameter_min": 101.054341542,
            "estimated_diameter_max": 225.9643771094
        },
        "miles": {
            "estimated_diameter_min": 0.0627922373,
            "estimated_diameter_max": 0.140407711
        },
        "feet": {
            "estimated_diameter_min": 331.5431259047,
            "estimated_diameter_max": 741.3529669956
        }
    },
    "is_potentially_hazardous_asteroid": false,
    "close_approach_data": [
        {
            "close_approach_date": "2011-11-06",
            "close_approach_date_full": "2011-Nov-06 23:52",
            "epoch_date_close_approach": 1320623520000,
            "relative_velocity": {
                "kilometers_per_second": "24.6924475039",
                "kilometers_per_hour": "88892.8110140202",
                "miles_per_hour": "55234.5358214616"
            },
            "miss_distance": {
                "astronomical": "0.2650084701",
                "lunar": "103.0882948689",
                "kilometers": "39644702.658918687",
                "miles": "24634075.9349724006"
            },
            "orbiting_body": "Earth"
        }
    ],
    "orbital_data": {
        "orbit_id": "7",
        "orbit_determination_date": "2017-04-06 08:52:08",
        "first_observation_date": "2011-10-30",
        "last_observation_date": "2011-11-05",
        "data_arc_in_days": 6,
        "observations_used": 27,
        "orbit_uncertainty": "9",
        "minimum_orbit_intersection": ".257111",
        "jupiter_tisserand_invariant": "2.305",
        "epoch_osculation": "2455866.5",
        "eccentricity": ".6781203819313451",
        "semi_major_axis": "3.732157141948655",
        "inclination": "42.98153476776503",
        "ascending_node_longitude": "222.3682916607074",
        "orbital_period": "2633.530235946292",
        "perihelion_distance": "1.201305315422636",
        "perihelion_argument": "207.4467146401751",
        "aphelion_distance": "6.263008968474675",
        "perihelion_time": "2455894.350626867738",
        "mean_anomaly": "356.1928572015111",
        "mean_motion": ".1366986393724252",
        "equinox": "J2000",
        "orbit_class": {
            "orbit_class_type": "AMO",
            "orbit_class_description": "Near-Earth asteroid orbits similar to that of 1221 Amor",
            "orbit_class_range": "1.017 AU < q (perihelion) < 1.3 AU"
        }
    },
    "is_sentry_object": false
}